{"type": "FeatureCollection", "features": [ {"type": "Feature", "properties": {"norad_id": 30480, "name": "FENGYUN 1C DEB", "group": "fengyun-1c-debris", "lat": -71.9910854432467, "lon": 20.836729297614017, "alt_km": 841.5141557152265, "timestamp": "2025-12-05T05:43:15.386211+00:00", "meta": {"OBJECT_NAME": "FENGYUN 1C DEB", "OBJECT_ID": "1999-025AGS", "EPOCH": "2025-12-04T12:21:46.075104", "MEAN_MOTION": 14.33582896, "ECCENTRICITY": 0.0165962, "INCLINATION": 98.2244, "RA_OF_ASC_NODE": 353.7326, "ARG_OF_PERICENTER": 170.1511, "MEAN_ANOMALY": 343.7799, "EPHEMERIS_TYPE": 0, "CLASSIFICATION_TYPE": "U", "NORAD_CAT_ID": 30480, "ELEMENT_SET_NO": 999, "REV_AT_EPOCH": 98550, "BSTAR": 0.00041006, "MEAN_MOTION_DOT": 1.28e-05, "MEAN_MOTION_DDOT": 0}, "tle": {"line1": "1 30480U 99025AGS 25338.51511661  .00001280  00000+0  41006-3 0  9991", "line2": "2 30480  98.2244 353.7326 0165962 170.1511 343.7799 14.33582896985508"}}, "geometry": {"type": "Point", "coordinates": [20.836729297614017, -71.9910854432467]}}, {"type": "Feature", "properties": {"norad_id": 30481, "name": "FENGYUN 1C DEB", "group": "fengyun-1c-debris", "lat": -67.76275073151714, "lon": 155.72660909823713, "alt_km": 634.9927370255291, "timestamp": "2025-12-05T05:43:15.386221+00:00", "meta": {"OBJECT_NAME": "FENGYUN 1C DEB", "OBJECT_ID": "1999-025AGT", "EPOCH": "2025-12-04T14:06:43.109280", "MEAN_MOTION": 14.38981061, "ECCENTRICITY": 0.0223205, "INCLINATION": 98.337, "RA_OF_ASC_NODE": 356.1119, "ARG_OF_PERICENTER": 284.6387, "MEAN_ANOMALY": 198.8136, "EPHEMERIS_TYPE": 0, "CLASSIFICATION_TYPE": "U", "NORAD_CAT_ID": 30481, "ELEMENT_SET_NO": 999, "REV_AT_EPOCH": 98366, "BSTAR": 0.0011752, "MEAN_MOTION_DOT": 4.802e-05, "MEAN_MOTION_DDOT": 0}, "tle": {"line1": "1 30481U 99025AGT 25338.58799895  .00004802  00000+0  11752-2 0  9993", "line2": "2 30481  98.3370 356.1119 0223205 284.6387 198.8136 14.38981061983665"}}, "geometry": {"type": "Point", "coordinates": [155.72660909823713, -67.76275073151714]}}, {"type": "Feature", "properties": {"norad_id": 30486, "name": "FENGYUN 1C DEB", "group": "fengyun-1c-debris", "lat": 60.74906042322638, "lon": -152.7732229964438, "alt_km": 296.6152961204107, "timestamp": "2025-12-05T05:43:15.386231+00:00", "meta": {"OBJECT_NAME": "FENGYUN 1C DEB", "OBJECT_ID": "1999-025AGY", "EPOCH": "2025-12-02T13:44:42.280512", "MEAN_MOTION": 15.87023025, "ECCENTRICITY": 0.00187191, "INCLINATION": 98.805, "RA_OF_ASC_NODE": 7.713, "ARG_OF_PERICENTER": 230.211, "MEAN_ANOMALY": 129.7509, "EPHEMERIS_TYPE": 0, "CLASSIFICATION_TYPE": "U", "NORAD_CAT_ID": 30486, "ELEMENT_SET_NO": 999, "REV_AT_EPOCH": 1592, "BSTAR": 0.0025946463, "MEAN_MOTION_DOT": 0.00673876, "MEAN_MOTION_DDOT": 0.0001747163}, "tle": {"line1": "1 30486U 99025AGY 25336.57271158  .00673876  17472-3  25946-2 0  9990", "line2": "2 30486  98.8050   7.7130 0018719 230.2110 129.7509 15.87023025 15929"}}, "geometry": {"type": "Point", "coordinates": [-152.7732229964438, 60.74906042322638]}}, {"type": "Feature", "properties": {"norad_id": 30489, "name": "FENGYUN 1C DEB", "group": "fengyun-1c-debris", "lat": 11.369399458202984, "lon": -7.21695122731337, "alt_km": 830.3363408542218, "timestamp": "2025-12-05T05:43:15.386242+00:00", "meta": {"OBJECT_NAME": "FENGYUN 1C DEB", "OBJECT_ID": "1999-025AHB", "EPOCH": "2025-12-03T12:00:47.743776", "MEAN_MOTION": 14.15801844, "ECCENTRICITY": 0.0138959, "INCLINATION": 98.4693, "RA_OF_ASC_NODE": 352.8475, "ARG_OF_PERICENTER": 291.8664, "MEAN_ANOMALY": 225.6861, "EPHEMERIS_TYPE": 0, "CLASSIFICATION_TYPE": "U", "NORAD_CAT_ID": 30489, "ELEMENT_SET_NO": 999, "REV_AT_EPOCH": 97256, "BSTAR": 0.00041111807, "MEAN_MOTION_DOT": 8.45e-06, "MEAN_MOTION_DDOT": 0}, "tle": {"line1": "1 30489U 99025AHB 25337.50055259  .00000845  00000+0  41112-3 0  9998", "line2": "2 30489  98.4693 352.8475 0138959 291.8664 225.6861 14.15801844972565"}}, "geometry": {"type": "Point", "coordinates": [-7.21695122731337, 11.369399458202984]}}, {"type": "Feature", "properties": {"norad_id": 30490, "name": "FENGYUN 1C DEB", "group": "fengyun-1c-debris", "lat": 40.14524909396763, "lon": 102.91907635635961, "alt_km": 494.08018423101294, "timestamp": "2025-12-05T05:43:15.386252+00:00", "meta": {"OBJECT_NAME": "FENGYUN 1C DEB", "OBJECT_ID": "1999-025AHC", "EPOCH": "2025-12-04T13:48:20.725632", "MEAN_MOTION": 15.25937073, "ECCENTRICITY": 0.0051764, "INCLINATION": 98.3344, "RA_OF_ASC_NODE": 109.2828, "ARG_OF_PERICENTER": 149.7424, "MEAN_ANOMALY": 210.6818, "EPHEMERIS_TYPE": 0, "CLASSIFICATION_TYPE": "U", "NORAD_CAT_ID": 30490, "ELEMENT_SET_NO": 999, "REV_AT_EPOCH": 99371, "BSTAR": 0.0080813, "MEAN_MOTION_DOT": 0.00221347, "MEAN_MOTION_DDOT": 0}, "tle": {"line1": "1 30490U 99025AHC 25338.57523988  .00221347  00000+0  80813-2 0  9999", "line2": "2 30490  98.3344 109.2828 0051764 149.7424 210.6818 15.25937073993710"}}, "geometry": {"type": "Point", "coordinates": [102.91907635635961, 40.14524909396763]}}, {"type": "Feature", "properties": {"norad_id": 30492, "name": "FENGYUN 1C DEB", "group": "fengyun-1c-debris", "lat": -51.08266396985624, "lon": 157.3110708651191, "alt_km": 785.5643446915565, "timestamp": "2025-12-05T05:43:15.386263+00:00", "meta": {"OBJECT_NAME": "FENGYUN 1C DEB", "OBJECT_ID": "1999-025AHE", "EPOCH": "2025-12-04T07:09:15.453792", "MEAN_MOTION": 14.51500281, "ECCENTRICITY": 0.0095596, "INCLINATION": 102.3259, "RA_OF_ASC_NODE": 351.6503, "ARG_OF_PERICENTER": 85.7373, "MEAN_ANOMALY": 275.4724, "EPHEMERIS_TYPE": 0, "CLASSIFICATION_TYPE": "U", "NORAD_CAT_ID": 30492, "ELEMENT_SET_NO": 999, "REV_AT_EPOCH": 96772, "BSTAR": 0.0080055, "MEAN_MOTION_DOT": 0.00034056, "MEAN_MOTION_DDOT": 0}, "tle": {"line1": "1 30492U 99025AHE 25338.29809553  .00034056  00000+0  80055-2 0  9992", "line2": "2 30492 102.3259 351.6503 0095596  85.7373 275.4724 14.51500281967721"}}, "geometry": {"type": "Point", "coordinates": [157.3110708651191, -51.08266396985624]}}, {"type": "Feature", "properties": {"norad_id": 30493, "name": "FENGYUN 1C DEB", "group": "fengyun-1c-debris", "lat": -15.649157035692, "lon": 172.5341232343556, "alt_km": 959.4437254278628, "timestamp": "2025-12-05T05:43:15.386273+00:00", "meta": {"OBJECT_NAME": "FENGYUN 1C DEB", "OBJECT_ID": "1999-025AHF", "EPOCH": "2025-12-03T19:24:08.477280", "MEAN_MOTION": 13.92831911, "ECCENTRICITY": 0.01820459, "INCLINATION": 98.5709, "RA_OF_ASC_NODE": 168.7881, "ARG_OF_PERICENTER": 241.4629, "MEAN_ANOMALY": 134.7169, "EPHEMERIS_TYPE": 0, "CLASSIFICATION_TYPE": "U", "NORAD_CAT_ID": 30493, "ELEMENT_SET_NO": 999, "REV_AT_EPOCH": 94971, "BSTAR": 0.0047513688, "MEAN_MOTION_DOT": 7.017e-05, "MEAN_MOTION_DDOT": 0}, "tle": {"line1": "1 30493U 99025AHF 25337.80843145  .00007017  00000+0  47514-2 0  9994", "line2": "2 30493  98.5709 168.7881 0182045 241.4629 134.7169 13.92831911949715"}}, "geometry": {"type": "Point", "coordinates": [172.5341232343556, -15.649157035692]}}, {"type": "Feature", "properties": {"norad_id": 30494, "name": "FENGYUN 1C DEB", "group": "fengyun-1c-debris", "lat": -80.09842293367765, "lon": 125.2112001104999, "alt_km": 849.1620249135904, "timestamp": "2025-12-05T05:43:15.386283+00:00", "meta": {"OBJECT_NAME": "FENGYUN 1C DEB", "OBJECT_ID": "1999-025AHG", "EPOCH": "2025-12-03T08:54:16.401024", "MEAN_MOTION": 13.79322889, "ECCENTRICITY": 0.0185497, "INCLINATION": 99.2834, "RA_OF_ASC_NODE": 12.9341, "ARG_OF_PERICENTER": 246.9804, "MEAN_ANOMALY": 111.1691, "EPHEMERIS_TYPE": 0, "CLASSIFICATION_TYPE": "U", "NORAD_CAT_ID": 30494, "ELEMENT_SET_NO": 999, "REV_AT_EPOCH": 94357, "BSTAR": 0.0020822, "MEAN_MOTION_DOT": 2.387e-05, "MEAN_MOTION_DDOT": 0}, "tle": {"line1": "1 30494U 99025AHG 25337.37102316  .00002387  00000+0  20822-2 0  9993", "line2": "2 30494  99.2834  12.9341 0185497 246.9804 111.1691 13.79322889943574"}}, "geometry": {"type": "Point", "coordinates": [125.2112001104999, -80.09842293367765]}}, {"type": "Feature", "properties": {"norad_id": 30495, "name": "FENGYUN 1C DEB", "group": "fengyun-1c-debris", "lat": 37.138375515481926, "lon": 57.628738688072666, "alt_km": 1460.941893632843, "timestamp": "2025-12-05T05:43:15.386293+00:00", "meta": {"OBJECT_NAME": "FENGYUN 1C DEB", "OBJECT_ID": "1999-025AHH", "EPOCH": "2025-12-03T12:42:43.025760", "MEAN_MOTION": 12.9432737, "ECCENTRICITY": 0.05963109, "INCLINATION": 102.2617, "RA_OF_ASC_NODE": 65.1943, "ARG_OF_PERICENTER": 285.4927, "MEAN_ANOMALY": 68.1109, "EPHEMERIS_TYPE": 0, "CLASSIFICATION_TYPE": "U", "NORAD_CAT_ID": 30495, "ELEMENT_SET_NO": 999, "REV_AT_EPOCH": 88554, "BSTAR": 0.0035428862, "MEAN_MOTION_DOT": 2.155e-05, "MEAN_MOTION_DDOT": 0}, "tle": {"line1": "1 30495U 99025AHH 25337.52966465  .00002155  00000+0  35429-2 0  9996", "line2": "2 30495 102.2617  65.1943 0596310 285.4927  68.1109 12.94327370885544"}}, "geometry": {"type": "Point", "coordinates": [57.628738688072666, 37.138375515481926]}}, {"type": "Feature", "properties": {"norad_id": 30496, "name": "FENGYUN 1C DEB", "group": "fengyun-1c-debris", "lat": -77.37735485412695, "lon": -72.13814337929497, "alt_km": 676.1137815068514, "timestamp": "2025-12-05T05:43:15.386304+00:00", "meta": {"OBJECT_NAME": "FENGYUN 1C DEB", "OBJECT_ID": "1999-025AHJ", "EPOCH": "2025-12-04T05:58:53.241312", "MEAN_MOTION": 14.94090094, "ECCENTRICITY": 0.013018, "INCLINATION": 98.784, "RA_OF_ASC_NODE": 243.088, "ARG_OF_PERICENTER": 124.606, "MEAN_ANOMALY": 236.7516, "EPHEMERIS_TYPE": 0, "CLASSIFICATION_TYPE": "U", "NORAD_CAT_ID": 30496, "ELEMENT_SET_NO": 999, "REV_AT_EPOCH": 1017, "BSTAR": 0.0011357, "MEAN_MOTION_DOT": 0.00014298, "MEAN_MOTION_DDOT": 0}, "tle": {"line1": "1 30496U 99025AHJ 25338.24922733  .00014298  00000+0  11357-2 0  9992", "line2": "2 30496  98.7840 243.0880 0130180 124.6060 236.7516 14.94090094 10176"}}, "geometry": {"type": "Point", "coordinates": [-72.13814337929497, -77.37735485412695]}}]}